[{"COMMENT":"GENERATED VIA SPACETRACK.ORG API","ORIGINATOR":"18 SPCS","NORAD_CAT_ID":"43477","OBJECT_NAME":"GRACE-FO 2","OBJECT_TYPE":"PAYLOAD","CLASSIFICATION_TYPE":"U","INTLDES":"18047B","EPOCH":"2023-06-07 02:50:01","EPOCH_MICROSECONDS":"963392","MEAN_MOTION":"15.26105158","ECCENTRICITY":"0.001683","INCLINATION":"88.9873","RA_OF_ASC_NODE":"350.5299","ARG_OF_PERICENTER":"78.1802","MEAN_ANOMALY":"282.1334","EPHEMERIS_TYPE":"0","ELEMENT_SET_NO":"999","REV_AT_EPOCH":"28046","BSTAR":"0.00011313","MEAN_MOTION_DOT":"0.00002957","MEAN_MOTION_DDOT":"0","FILE":"3926641","TLE_LINE0":"0 GRACE-FO 2","TLE_LINE1":"1 43477U 18047B   23158.11807828  .00002957  00000-0  11313-3 0  9994","TLE_LINE2":"2 43477  88.9873 350.5299 0016830  78.1802 282.1334 15.26105158280464","OBJECT_ID":"2018-047B","OBJECT_NUMBER":"43477","SEMIMAJOR_AXIS":"6865.606","PERIOD":"94.358","APOGEE":"499.026","PERIGEE":"475.916","DECAYED":"0"},{"COMMENT":"GENERATED VIA SPACETRACK.ORG API","ORIGINATOR":"18 SPCS","NORAD_CAT_ID":"43477","OBJECT_NAME":"GRACE-FO 2","OBJECT_TYPE":"PAYLOAD","CLASSIFICATION_TYPE":"U","INTLDES":"18047B","EPOCH":"2023-06-07 13:50:59","EPOCH_MICROSECONDS":"947008","MEAN_MOTION":"15.26107878","ECCENTRICITY":"0.0016812","INCLINATION":"88.9874","RA_OF_ASC_NODE":"350.4674","ARG_OF_PERICENTER":"76.73","MEAN_ANOMALY":"283.5822","EPHEMERIS_TYPE":"0","ELEMENT_SET_NO":"999","REV_AT_EPOCH":"28053","BSTAR":"0.00011243","MEAN_MOTION_DOT":"0.00002939","MEAN_MOTION_DDOT":"0","FILE":"3927174","TLE_LINE0":"0 GRACE-FO 2","TLE_LINE1":"1 43477U 18047B   23158.57708272  .00002939  00000-0  11243-3 0  9999","TLE_LINE2":"2 43477  88.9874 350.4674 0016812  76.7300 283.5822 15.26107878280534","OBJECT_ID":"2018-047B","OBJECT_NUMBER":"43477","SEMIMAJOR_AXIS":"6865.598","PERIOD":"94.358","APOGEE":"499.005","PERIGEE":"475.920","DECAYED":"0"},{"COMMENT":"GENERATED VIA SPACETRACK.ORG API","ORIGINATOR":"18 SPCS","NORAD_CAT_ID":"43477","OBJECT_NAME":"GRACE-FO 2","OBJECT_TYPE":"PAYLOAD","CLASSIFICATION_TYPE":"U","INTLDES":"18047B","EPOCH":"2023-06-07 21:43:07","EPOCH_MICROSECONDS":"24224","MEAN_MOTION":"15.2611","ECCENTRICITY":"0.00168","INCLINATION":"88.9875","RA_OF_ASC_NODE":"350.4228","ARG_OF_PERICENTER":"75.6846","MEAN_ANOMALY":"284.6267","EPHEMERIS_TYPE":"0","ELEMENT_SET_NO":"999","REV_AT_EPOCH":"28058","BSTAR":"0.00011653","MEAN_MOTION_DOT":"0.00003046","MEAN_MOTION_DDOT":"0","FILE":"3927436","TLE_LINE0":"0 GRACE-FO 2","TLE_LINE1":"1 43477U 18047B   23158.90494241  .00003046  00000-0  11653-3 0  9999","TLE_LINE2":"2 43477  88.9875 350.4228 0016800  75.6846 284.6267 15.26110000280581","OBJECT_ID":"2018-047B","OBJECT_NUMBER":"43477","SEMIMAJOR_AXIS":"6865.591","PERIOD":"94.358","APOGEE":"498.991","PERIGEE":"475.922","DECAYED":"0"},{"COMMENT":"GENERATED VIA SPACETRACK.ORG API","ORIGINATOR":"18 SPCS","NORAD_CAT_ID":"43477","OBJECT_NAME":"GRACE-FO 2","OBJECT_TYPE":"PAYLOAD","CLASSIFICATION_TYPE":"U","INTLDES":"18047B","EPOCH":"2023-06-08 10:18:30","EPOCH_MICROSECONDS":"267936","MEAN_MOTION":"15.26113143","ECCENTRICITY":"0.0016775","INCLINATION":"88.9875","RA_OF_ASC_NODE":"350.3515","ARG_OF_PERICENTER":"74.017","MEAN_ANOMALY":"286.2925","EPHEMERIS_TYPE":"0","ELEMENT_SET_NO":"999","REV_AT_EPOCH":"28066","BSTAR":"0.00011521","MEAN_MOTION_DOT":"0.00003012","MEAN_MOTION_DDOT":"0","FILE":"3927802","TLE_LINE0":"0 GRACE-FO 2","TLE_LINE1":"1 43477U 18047B   23159.42951699  .00003012  00000-0  11521-3 0  9999","TLE_LINE2":"2 43477  88.9875 350.3515 0016775  74.0170 286.2925 15.26113143280662","OBJECT_ID":"2018-047B","OBJECT_NUMBER":"43477","SEMIMAJOR_AXIS":"6865.582","PERIOD":"94.357","APOGEE":"498.964","PERIGEE":"475.930","DECAYED":"0"},{"COMMENT":"GENERATED VIA SPACETRACK.ORG API","ORIGINATOR":"18 SPCS","NORAD_CAT_ID":"43477","OBJECT_NAME":"GRACE-FO 2","OBJECT_TYPE":"PAYLOAD","CLASSIFICATION_TYPE":"U","INTLDES":"18047B","EPOCH":"2023-06-08 13:27:21","EPOCH_MICROSECONDS":"73248","MEAN_MOTION":"15.26113653","ECCENTRICITY":"0.0016767","INCLINATION":"88.9876","RA_OF_ASC_NODE":"350.3336","ARG_OF_PERICENTER":"73.5968","MEAN_ANOMALY":"286.7122","EPHEMERIS_TYPE":"0","ELEMENT_SET_NO":"999","REV_AT_EPOCH":"28068","BSTAR":"0.00011243","MEAN_MOTION_DOT":"0.0000294","MEAN_MOTION_DDOT":"0","FILE":"3928007","TLE_LINE0":"0 GRACE-FO 2","TLE_LINE1":"1 43477U 18047B   23159.56066057  .00002940  00000-0  11243-3 0  9999","TLE_LINE2":"2 43477  88.9876 350.3336 0016767  73.5968 286.7122 15.26113653280686","OBJECT_ID":"2018-047B","OBJECT_NUMBER":"43477","SEMIMAJOR_AXIS":"6865.580","PERIOD":"94.357","APOGEE":"498.957","PERIGEE":"475.934","DECAYED":"0"},{"COMMENT":"GENERATED VIA SPACETRACK.ORG API","ORIGINATOR":"18 SPCS","NORAD_CAT_ID":"43477","OBJECT_NAME":"GRACE-FO 2","OBJECT_TYPE":"PAYLOAD","CLASSIFICATION_TYPE":"U","INTLDES":"18047B","EPOCH":"2023-06-08 15:01:46","EPOCH_MICROSECONDS":"467264","MEAN_MOTION":"15.26114128","ECCENTRICITY":"0.0016764","INCLINATION":"88.9876","RA_OF_ASC_NODE":"350.3247","ARG_OF_PERICENTER":"73.3751","MEAN_ANOMALY":"286.9336","EPHEMERIS_TYPE":"0","ELEMENT_SET_NO":"999","REV_AT_EPOCH":"28069","BSTAR":"0.0001141","MEAN_MOTION_DOT":"0.00002983","MEAN_MOTION_DDOT":"0","FILE":"3928201","TLE_LINE0":"0 GRACE-FO 2","TLE_LINE1":"1 43477U 18047B   23159.62623226  .00002983  00000-0  11410-3 0  9996","TLE_LINE2":"2 43477  88.9876 350.3247 0016764  73.3751 286.9336 15.26114128280690","OBJECT_ID":"2018-047B","OBJECT_NUMBER":"43477","SEMIMAJOR_AXIS":"6865.579","PERIOD":"94.357","APOGEE":"498.953","PERIGEE":"475.935","DECAYED":"0"},{"COMMENT":"GENERATED VIA SPACETRACK.ORG API","ORIGINATOR":"18 SPCS","NORAD_CAT_ID":"43477","OBJECT_NAME":"GRACE-FO 2","OBJECT_TYPE":"PAYLOAD","CLASSIFICATION_TYPE":"U","INTLDES":"18047B","EPOCH":"2023-06-09 11:29:16","EPOCH_MICROSECONDS":"492704","MEAN_MOTION":"15.2611892","ECCENTRICITY":"0.0016699","INCLINATION":"88.9875","RA_OF_ASC_NODE":"350.209","ARG_OF_PERICENTER":"70.6582","MEAN_ANOMALY":"289.647","EPHEMERIS_TYPE":"0","ELEMENT_SET_NO":"999","REV_AT_EPOCH":"28082","BSTAR":"0.00011222","MEAN_MOTION_DOT":"0.00002935","MEAN_MOTION_DDOT":"0","FILE":"3928620","TLE_LINE0":"0 GRACE-FO 2","TLE_LINE1":"1 43477U 18047B   23160.47866311  .00002935  00000-0  11222-3 0  9993","TLE_LINE2":"2 43477  88.9875 350.2090 0016699  70.6582 289.6470 15.26118920280821","OBJECT_ID":"2018-047B","OBJECT_NUMBER":"43477","SEMIMAJOR_AXIS":"6865.565","PERIOD":"94.357","APOGEE":"498.894","PERIGEE":"475.965","DECAYED":"0"},{"COMMENT":"GENERATED VIA SPACETRACK.ORG API","ORIGINATOR":"18 SPCS","NORAD_CAT_ID":"43477","OBJECT_NAME":"GRACE-FO 2","OBJECT_TYPE":"PAYLOAD","CLASSIFICATION_TYPE":"U","INTLDES":"18047B","EPOCH":"2023-06-09 14:38:07","EPOCH_MICROSECONDS":"239264","MEAN_MOTION":"15.26119779","ECCENTRICITY":"0.0016692","INCLINATION":"88.9876","RA_OF_ASC_NODE":"350.1911","ARG_OF_PERICENTER":"70.2265","MEAN_ANOMALY":"290.0781","EPHEMERIS_TYPE":"0","ELEMENT_SET_NO":"999","REV_AT_EPOCH":"28084","BSTAR":"0.0001144","MEAN_MOTION_DOT":"0.00002991","MEAN_MOTION_DDOT":"0","FILE":"3928876","TLE_LINE0":"0 GRACE-FO 2","TLE_LINE1":"1 43477U 18047B   23160.60980601  .00002991  00000-0  11440-3 0  9991","TLE_LINE2":"2 43477  88.9876 350.1911 0016692  70.2265 290.0781 15.26119779280846","OBJECT_ID":"2018-047B","OBJECT_NUMBER":"43477","SEMIMAJOR_AXIS":"6865.562","PERIOD":"94.357","APOGEE":"498.887","PERIGEE":"475.967","DECAYED":"0"},{"COMMENT":"GENERATED VIA SPACETRACK.ORG API","ORIGINATOR":"18 SPCS","NORAD_CAT_ID":"43477","OBJECT_NAME":"GRACE-FO 2","OBJECT_TYPE":"PAYLOAD","CLASSIFICATION_TYPE":"U","INTLDES":"18047B","EPOCH":"2023-06-09 20:55:48","EPOCH_MICROSECONDS":"732384","MEAN_MOTION":"15.26121248","ECCENTRICITY":"0.0016681","INCLINATION":"88.9877","RA_OF_ASC_NODE":"350.1554","ARG_OF_PERICENTER":"69.3347","MEAN_ANOMALY":"290.9688","EPHEMERIS_TYPE":"0","ELEMENT_SET_NO":"999","REV_AT_EPOCH":"28088","BSTAR":"0.00011457","MEAN_MOTION_DOT":"0.00002996","MEAN_MOTION_DDOT":"0","FILE":"3929125","TLE_LINE0":"0 GRACE-FO 2","TLE_LINE1":"1 43477U 18047B   23160.87209181  .00002996  00000-0  11457-3 0  9990","TLE_LINE2":"2 43477  88.9877 350.1554 0016681  69.3347 290.9688 15.26121248280881","OBJECT_ID":"2018-047B","OBJECT_NUMBER":"43477","SEMIMAJOR_AXIS":"6865.558","PERIOD":"94.357","APOGEE":"498.875","PERIGEE":"475.970","DECAYED":"0"},{"COMMENT":"GENERATED VIA SPACETRACK.ORG API","ORIGINATOR":"18 SPCS","NORAD_CAT_ID":"43477","OBJECT_NAME":"GRACE-FO 2","OBJECT_TYPE":"PAYLOAD","CLASSIFICATION_TYPE":"U","INTLDES":"18047B","EPOCH":"2023-06-10 12:40:02","EPOCH_MICROSECONDS":"342496","MEAN_MOTION":"15.2612518","ECCENTRICITY":"0.0016619","INCLINATION":"88.9876","RA_OF_ASC_NODE":"350.0663","ARG_OF_PERICENTER":"67.2109","MEAN_ANOMALY":"293.0894","EPHEMERIS_TYPE":"0","ELEMENT_SET_NO":"999","REV_AT_EPOCH":"28098","BSTAR":"0.00011834","MEAN_MOTION_DOT":"0.00003094","MEAN_MOTION_DDOT":"0","FILE":"3929709","TLE_LINE0":"0 GRACE-FO 2","TLE_LINE1":"1 43477U 18047B   23161.52780489  .00003094  00000-0  11834-3 0  9997","TLE_LINE2":"2 43477  88.9876 350.0663 0016619  67.2109 293.0894 15.26125180280987","OBJECT_ID":"2018-047B","OBJECT_NUMBER":"43477","SEMIMAJOR_AXIS":"6865.546","PERIOD":"94.357","APOGEE":"498.821","PERIGEE":"476.001","DECAYED":"0"}]